NORAD_CAT_ID,OBJECT_NAME,OBJECT_TYPE,EPOCH,MEAN_MOTION,ECCENTRICITY,INCLINATION,RA_OF_ASC_NODE,ARG_OF_PERICENTER,MEAN_ANOMALY,BSTAR,MEAN_MOTION_DOT,MEAN_MOTION_DDOT,TLE_LINE0,TLE_LINE1,TLE_LINE2,SEMIMAJOR_AXIS,PERIOD,APOGEE,PERIGEE,DECAYED
53804.0,STARLINK-4729,PAYLOAD,2024-07-10 21:24:43,15.08838873,0.0001424,53.2161,102.9255,91.9134,268.2021,9.5948e-05,1.239e-05,0.0,0 STARLINK-4729,1 53804U 22111AH  24192.89216548  .00001239  00000-0  95948-4 0  9992,2 53804  53.2161 102.9255 0001424  91.9134 268.2021 15.08838873102287,6917.884,95.438,540.734,538.764,0.0
53804.0,STARLINK-4729,PAYLOAD,2024-07-11 03:46:14,15.08849103,0.0001347,53.217,101.7353,102.3423,257.772,6.5977e-05,7.63e-06,0.0,0 STARLINK-4729,1 53804U 22111AH  24193.15711782  .00000763  00000-0  65977-4 0  9992,2 53804  53.2170 101.7353 0001347 102.3423 257.7720 15.08849103101517,6917.853,95.437,540.649,538.786,0.0
53804.0,STARLINK-4729,PAYLOAD,2024-07-12 03:37:01,15.08850768,0.0001716,53.2182,97.2744,104.49,255.6282,8.4558e-05,1.058e-05,0.0,0 STARLINK-4729,1 53804U 22111AH  24194.15071695  .00001058  00000-0  84558-4 0  9999,2 53804  53.2182  97.2744 0001716 104.4900 255.6282 15.08850768102471,6917.847,95.437,540.9,538.525,0.0
53804.0,STARLINK-4729,PAYLOAD,2024-07-12 21:06:16,15.08845564,0.0002072,53.2175,94.0013,125.1829,234.9358,7.1815e-05,8.55e-06,0.0,0 STARLINK-4729,1 53804U 22111AH  24194.87935906  .00000855  00000-0  71815-4 0  9998,2 53804  53.2175  94.0013 0002072 125.1829 234.9358 15.08845564101777,6917.863,95.437,541.162,538.295,0.0
53804.0,STARLINK-4729,PAYLOAD,2024-07-12 22:41:39,15.08844553,0.0001681,53.2185,93.7059,109.1409,250.9765,7.3985e-05,8.9e-06,0.0,0 STARLINK-4729,1 53804U 22111AH  24194.94560081  .00000890  00000-0  73985-4 0  9993,2 53804  53.2185  93.7059 0001681 109.1409 250.9765 15.08844553102593,6917.866,95.437,540.894,538.569,0.0
53804.0,STARLINK-4729,PAYLOAD,2024-07-13 09:49:21,15.08841983,0.000117,53.2155,91.6299,86.69,273.4226,-4.5504e-05,-1.012e-05,0.0,0 STARLINK-4729,1 53804U 22111AH  24195.40928054 -.00001012  00000-0 -45504-4 0  9998,2 53804  53.2155  91.6299 0001170  86.6900 273.4226 15.08841983101855,6917.874,95.437,540.549,538.93,0.0
53804.0,STARLINK-4729,PAYLOAD,2024-07-13 20:57:04,15.08840645,0.0001185,53.2188,89.5514,88.6196,271.4932,4.328e-05,4.01e-06,0.0,0 STARLINK-4729,1 53804U 22111AH  24195.87296767  .00000401  00000-0  43280-4 0  9996,2 53804  53.2188  89.5514 0001185  88.6196 271.4932 15.08840645101926,6917.878,95.438,540.563,538.924,0.0
53804.0,STARLINK-4729,PAYLOAD,2024-07-13 22:32:27,15.08842361,0.0001171,53.2187,89.2548,89.6585,270.4542,6.0961e-05,6.83e-06,0.0,0 STARLINK-4729,1 53804U 22111AH  24195.93920584  .00000683  00000-0  60961-4 0  9991,2 53804  53.2187  89.2548 0001171  89.6585 270.4542 15.08842361102741,6917.873,95.437,540.548,538.928,0.0
53804.0,STARLINK-4729,PAYLOAD,2024-07-14 09:40:08,15.08845586,0.0001346,53.2184,87.1713,96.5272,263.5873,-3.174e-05,-7.93e-06,0.0,0 STARLINK-4729,1 53804U 22111AH  24196.40287945 -.00000793  00000-0 -31740-4 0  9998,2 53804  53.2184  87.1713 0001346  96.5272 263.5873 15.08845586102004,6917.863,95.437,540.659,538.797,0.0
53804.0,STARLINK-4729,PAYLOAD,2024-07-14 20:47:51,15.08840926,0.0001505,53.219,85.0901,104.3794,255.7365,8.5583e-05,1.074e-05,0.0,0 STARLINK-4729,1 53804U 22111AH  24196.86656459  .00001074  00000-0  85583-4 0  9993,2 53804  53.2190  85.0901 0001505 104.3794 255.7365 15.08840926102070,6917.878,95.437,540.784,538.701,0.0
53804.0,STARLINK-4729,PAYLOAD,2024-07-14 22:23:14,15.0884196,0.0001616,53.2191,84.7926,110.1996,249.917,9.4662e-05,1.219e-05,0.0,0 STARLINK-4729,1 53804U 22111AH  24196.93280330  .00001219  00000-0  94662-4 0  9991,2 53804  53.2191  84.7926 0001616 110.1996 249.9170 15.08841960102894,6917.874,95.437,540.857,538.621,0.0
53804.0,STARLINK-4729,PAYLOAD,2024-07-15 09:30:56,15.08836651,0.0001482,53.2168,82.7088,86.8286,273.2876,5.1197e-05,5.27e-06,0.0,0 STARLINK-4729,1 53804U 22111AH  24197.39648711  .00000527  00000-0  51197-4 0  9990,2 53804  53.2168  82.7088 0001482  86.8286 273.2876 15.08836651102969,6917.891,95.438,540.781,538.73,0.0
53804.0,STARLINK-4729,PAYLOAD,2024-07-15 20:38:38,15.08835523,0.0001443,53.2175,80.6289,96.285,263.8307,6.0467e-05,6.74e-06,0.0,0 STARLINK-4729,1 53804U 22111AH  24197.86016856  .00000674  00000-0  60467-4 0  9994,2 53804  53.2175  80.6289 0001443  96.2850 263.8307 15.08835523102226,6917.894,95.438,540.757,538.761,0.0
53804.0,STARLINK-4729,PAYLOAD,2024-07-15 22:14:01,15.08838065,0.0001516,53.217,80.3282,87.0816,273.0349,1.3164e-05,-7.8e-07,0.0,0 STARLINK-4729,1 53804U 22111AH  24197.92640718 -.00000078  00000-0  13164-4 0  9992,2 53804  53.2170  80.3282 0001516  87.0816 273.0349 15.08838065103046,6917.886,95.438,540.8,538.703,0.0
53804.0,STARLINK-4729,PAYLOAD,2024-07-15 23:49:24,15.08840519,0.0001485,53.2175,80.033,89.969,270.1472,6.3909e-05,7.29e-06,0.0,0 STARLINK-4729,1 53804U 22111AH  24197.99264624  .00000729  00000-0  63909-4 0  9991,2 53804  53.2175  80.0330 0001485  89.9690 270.1472 15.08840519103051,6917.879,95.438,540.771,538.716,0.0
53804.0,STARLINK-4729,PAYLOAD,2024-07-16 22:04:48,15.08844338,0.0001404,53.2168,75.8685,77.9647,282.1502,7.1345e-05,8.48e-06,0.0,0 STARLINK-4729,1 53804U 22111AH  24198.92000512  .00000848  00000-0  71345-4 0  9994,2 53804  53.2168  75.8685 0001404  77.9647 282.1502 15.08844338103193,6917.867,95.437,540.703,538.761,0.0
53804.0,STARLINK-4729,PAYLOAD,2024-07-17 01:15:34,15.08854927,0.0001309,53.2166,75.2705,83.8188,276.2953,0.00023866,3.514e-05,0.0,0 STARLINK-4729,1 53804U 22111AH  24199.05247877  .00003514  00000-0  23866-3 0  9993,2 53804  53.2166  75.2705 0001309  83.8188 276.2953 15.08854927102400,6917.835,95.437,540.605,538.794,0.0
53804.0,STARLINK-4729,PAYLOAD,2024-07-17 09:12:30,15.08840005,0.0001037,53.2165,73.7831,112.4547,247.6555,-5.3005e-06,-3.72e-06,0.0,0 STARLINK-4729,1 53804U 22111AH  24199.38368419 -.00000372  00000-0 -53005-5 0  9996,2 53804  53.2165  73.7831 0001037 112.4547 247.6555 15.08840005102455,6917.88,95.438,540.463,539.028,0.0
53804.0,STARLINK-4729,PAYLOAD,2024-07-17 21:55:35,15.08841298,0.0001469,53.2179,71.4017,112.0016,248.1132,2.9101e-05,1.75e-06,0.0,0 STARLINK-4729,1 53804U 22111AH  24199.91360757  .00000175  00000-0  29101-4 0  9990,2 53804  53.2179  71.4017 0001469 112.0016 248.1132 15.08841298103348,6917.876,95.437,540.758,538.725,0.0
53804.0,STARLINK-4729,PAYLOAD,2024-07-18 09:03:17,15.08840281,0.0001472,53.2184,69.324,97.0767,263.0392,0.000115,1.543e-05,0.0,0 STARLINK-4729,1 53804U 22111AH  24200.37729078  .00001543  00000-0  11500-3 0  9991,2 53804  53.2184  69.3240 0001472  97.0767 263.0392 15.08840281103410,6917.88,95.438,540.763,538.726,0.0
53804.0,STARLINK-4729,PAYLOAD,2024-07-18 20:10:59,15.08842126,0.0001434,53.2183,67.2414,103.8251,256.2901,0.00014342,1.995e-05,0.0,0 STARLINK-4729,1 53804U 22111AH  24200.84097031  .00001995  00000-0  14342-3 0  9998,2 53804  53.2183  67.2414 0001434 103.8251 256.2901 15.08842126102678,6917.874,95.437,540.731,538.747,0.0
53804.0,STARLINK-4729,PAYLOAD,2024-07-18 21:46:22,15.08846989,0.0001521,53.2184,66.9458,90.4153,269.7013,6.0203e-05,6.7e-06,0.0,0 STARLINK-4729,1 53804U 22111AH  24200.90720893  .00000670  00000-0  60203-4 0  9991,2 53804  53.2184  66.9458 0001521  90.4153 269.7013 15.08846989103497,6917.859,95.437,540.776,538.672,0.0
53804.0,STARLINK-4729,PAYLOAD,2024-07-19 21:37:10,15.08839948,0.0001355,53.2172,62.4888,99.3476,260.767,0.00020622,2.996e-05,0.0,0 STARLINK-4729,1 53804U 22111AH  24201.90081439  .00002996  00000-0  20622-3 0  9991,2 53804  53.2172  62.4888 0001355  99.3476 260.7670 15.08839948102837,6917.881,95.438,540.683,538.808,0.0
53804.0,STARLINK-4729,PAYLOAD,2024-07-20 07:09:29,15.08840849,0.0001278,53.2169,60.703,99.4736,260.64,0.00011869,1.602e-05,0.0,0 STARLINK-4729,1 53804U 22111AH  24202.29825361  .00001602  00000-0  11869-3 0  9990,2 53804  53.2169  60.7030 0001278  99.4736 260.6400 15.08840849103706,6917.878,95.438,540.627,538.859,0.0
53804.0,STARLINK-4729,PAYLOAD,2024-07-20 21:27:57,15.08839052,0.0001276,53.218,58.0315,100.6097,259.5039,0.00015081,2.113e-05,0.0,0 STARLINK-4729,1 53804U 22111AH  24202.89441677  .00002113  00000-0  15081-3 0  9998,2 53804  53.2180  58.0315 0001276 100.6097 259.5039 15.08839052103796,6917.883,95.438,540.631,538.866,0.0
53804.0,STARLINK-4729,PAYLOAD,2024-07-21 07:00:16,15.08842649,0.0001407,53.2177,56.2477,113.5447,246.5693,6.0987e-05,6.83e-06,0.0,0 STARLINK-4729,1 53804U 22111AH  24203.29185439  .00000683  00000-0  60987-4 0  9990,2 53804  53.2177  56.2477 0001407 113.5447 246.5693 15.08842649103854,6917.872,95.437,540.711,538.764,0.0
53804.0,STARLINK-4729,PAYLOAD,2024-07-21 19:43:21,15.08833634,0.0001652,53.218,53.8679,115.9328,244.1834,-2.9644e-05,-7.6e-06,0.0,0 STARLINK-4729,1 53804U 22111AH  24203.82178111 -.00000760  00000-0 -29644-4 0  9991,2 53804  53.2180  53.8679 0001652 115.9328 244.1834 15.08833634103126,6917.9,95.438,540.908,538.622,0.0
53804.0,STARLINK-4729,PAYLOAD,2024-07-22 22:44:54,15.08850583,0.0001387,53.2176,48.8116,106.2936,253.8208,0.00019013,2.74e-05,0.0,0 STARLINK-4729,1 53804U 22111AH  24204.94785271  .00002740  00000-0  19013-3 0  9992,2 53804  53.2176  48.8116 0001387 106.2936 253.8208 15.08850583104107,6917.848,95.437,540.673,538.754,0.0
53804.0,STARLINK-4729,PAYLOAD,2024-07-23 22:35:40,15.0886031,0.0001193,53.2164,44.3474,95.572,264.5409,0.00026268,3.897e-05,0.0,0 STARLINK-4729,1 53804U 22111AH  24205.94144146  .00003897  00000-0  26268-3 0  9997,2 53804  53.2164  44.3474 0001193  95.5720 264.5409 15.08860310104255,6917.818,95.436,540.509,538.858,0.0
53804.0,STARLINK-4729,PAYLOAD,2024-07-24 12:54:08,15.08863731,0.0002663,53.2168,41.6694,88.6431,271.4866,0.00028179,4.202e-05,0.0,0 STARLINK-4729,1 53804U 22111AH  24206.53759739  .00004202  00000-0  28179-3 0  9997,2 53804  53.2168  41.6694 0002663  88.6431 271.4866 15.08863731103532,6917.808,95.436,541.515,537.831,0.0
